ONEWEB-0520             
1 54138U 22138AB  25130.69429850 -.00000021  00000+0 -85772-4 0  9998
2 54138  87.9251  24.9611 0001469  77.2970 282.8327 13.19726830123738
ONEWEB-0521             
1 54139U 22138AC  25130.72746474 -.00000193  00000+0 -51373-3 0  9996
2 54139  87.9250  24.9424 0002076  77.4588 282.6776 13.19724510123685
ONEWEB-0522             
1 54140U 22138AD  25130.70693163  .00000056  00000+0  10699-3 0  9994
2 54140  87.9251  24.9479 0001757  81.7390 278.3942 13.19723924123722
ONEWEB-0523             
1 54141U 22138AE  25130.91343661  .00000039  00000+0  63514-4 0  9999
2 54141  87.9289 354.5479 0002673  92.0411 268.1028 13.20772952126208
ONEWEB-0524             
1 54142U 22138AF  25130.90238611  .00000030  00000+0  42338-4 0  9999
2 54142  87.9290 354.5520 0002091 111.2748 248.8608 13.20772937126201
ONEWEB-0525             
1 54143U 22138AG  25130.72588340 -.00000192  00000+0 -51311-3 0  9998
2 54143  87.9254  24.9619 0001549  76.8090 283.3216 13.19725037123744
ONEWEB-0526             
1 54144U 22138AH  25130.98650700  .00000049  00000+0  90085-4 0  9998
2 54144  87.9250  24.8995 0001732  80.4729 279.6600 13.19727049124629
ONEWEB-0529             
1 54145U 22138AJ  25131.14130740  .00000127  00000+0  28441-3 0  9998
2 54145  87.9257  24.9080 0001579  79.3834 280.7477 13.19726772124667
